STARLINK-1091           
1 44940U 20001AC  24239.41453679  .00022573  00000+0  15286-2 0  9995
2 44940  53.0549 321.7944 0001427  74.7384 285.3762 15.06421051255679
STARLINK-1094           
1 44941U 20001AD  24239.56934491  .00017464  00000+0  11878-2 0  9994
2 44941  53.0536 321.0960 0001410 102.7024 257.4123 15.06418888255701
STARLINK-1096           
1 44942U 20001AE  24240.20833377  .00026131  00000+0  72479-3 0  9995
2 44942  53.0097 234.7153 0005350  91.8205 268.3409 15.36764857256975
STARLINK-1108           
1 44944U 20001AG  24240.00001157  .01267186  00000+0  50426-1 0  9992
2 44944  53.0532 318.7851 0001428  96.6772 217.4597 15.21730655  5803
STARLINK-1109           
1 44945U 20001AH  24239.41085947  .00019264  00000+0  13080-2 0  9992
2 44945  53.0569 321.8088 0001598 115.2603 244.8552 15.06417435255678
STARLINK-1122           
1 44949U 20001AM  24239.92318837  .00009172  00000+0  63356-3 0  9998
2 44949  53.0543 319.5084 0001779  98.5458 261.5732 15.06415145255757
STARLINK-1117           
1 44952U 20001AQ  24239.57303569  .00013598  00000+0  92961-3 0  9990
2 44952  53.0542 321.0808 0001584  97.5007 262.6162 15.06415468255707
STARLINK-1066           
1 44954U 20001AS  24239.86974644  .00004327  00000+0  30908-3 0  9995
2 44954  53.0533 299.7490 0001432  94.4913 265.6239 15.06411245255977
STARLINK-1076           
1 44959U 20001AX  24239.51589784  .00016788  00000+0  11427-2 0  9997
2 44959  53.0538 301.3361 0001583  79.4270 280.6897 15.06418638255970
STARLINK-1080           
1 44961U 20001AZ  24239.52326002  .00004075  00000+0  29218-3 0  9997
2 44961  53.0535 301.3059 0001491  98.9974 261.1184 15.06419050255982
STARLINK-1088           
1 44966U 20001BE  24239.70883693  .00024679  00000+0  67340-3 0  9996
2 44966  53.0641 239.1922 0001467  84.0197 276.0973 15.37318065256887
STARLINK-1089           
1 44967U 20001BF  24240.00001157  .01435333  00000+0  29322-1 0  9999
2 44967  53.0529 296.8209 0001142  81.5845  67.8517 15.42735829  5668
STARLINK-1090           
1 44968U 20001BG  24239.85868543  .00007412  00000+0  51572-3 0  9997
2 44968  53.0547 299.7975 0001771  94.2446 265.8745 15.06415677256035
STARLINK-1092           
1 44969U 20001BH  24239.51958466  .00010424  00000+0  71730-3 0  9990
2 44969  53.0532 301.3208 0001457  88.4352 271.6804 15.06418655255973
STARLINK-1093           
1 44970U 20001BJ  24239.89554304  .00000785  00000+0  71561-4 0  9998
2 44970  53.0566 299.6279 0001511  91.2056 268.9106 15.06402879256025
STARLINK-1107           
1 44972U 20001BL  24239.87615398  .00031033  00000+0  19669-2 0  9998
2 44972  53.0518 299.1210 0002768  17.0977 343.0106 15.08694435256047
STARLINK-1115           
1 44973U 20001BM  24239.89255223  .00050735  00000+0  26040-2 0  9999
2 44973  53.0524 295.9775 0002866  40.8643 319.2564 15.16047827256081
STARLINK-1132           
1 45044U 20006A   24239.75179211  .00000333  00000+0  41250-4 0  9992
2 45044  53.0538 260.2746 0001715  90.8564 269.2621 15.06400932252340
STARLINK-1131           
1 45047U 20006D   24239.45952451  .00002658  00000+0  20146-3 0  9999
2 45047  53.0537 282.0994 0001695  93.1619 266.9564 15.05597539252016
STARLINK-1134           
1 45048U 20006E   24239.81629816  .00002974  00000+0  21843-3 0  9992
2 45048  53.0537 279.9884 0001361  99.7452 260.3691 15.06400659252079
STARLINK-1135           
1 45049U 20006F   24240.08406688  .00136560  00000+0  23961-2 0  9995
2 45049  53.0826 180.3068 0002877  42.2003 317.9226 15.49596157253887
STARLINK-1148           
1 45052U 20006J   24239.84123654  .00041375  00000+0  20287-2 0  9997
2 45052  53.0537 275.0755 0004066  48.8492 311.2852 15.17741988252140
STARLINK-1155           
1 45053U 20006K   24240.25001157  .00286024  41182-4  93135-3 0  9994
2 45053  52.9755  97.8121 0003347 266.3157 218.3839 15.90244178254913
STARLINK-1156           
1 45054U 20006L   24239.83103445  .00003448  00000+0  25017-3 0  9990
2 45054  53.0536 279.9209 0001588  81.3897 278.7272 15.06412766252077
STARLINK-1159           
1 45057U 20006P   24239.84578925  .00001208  00000+0  99945-4 0  9997
2 45057  53.0535 279.8575 0001895  87.6696 272.4510 15.06410273252089
STARLINK-1162           
1 45058U 20006Q   24239.83841788  .00000364  00000+0  43351-4 0  9999
2 45058  53.0553 279.8845 0001678  93.2818 266.8363 15.06400984252089
STARLINK-1166           
1 45060U 20006S   24239.45876447  .00001276  00000+0  10452-3 0  9998
2 45060  53.0540 281.5945 0001477  90.0595 270.0563 15.06411117252363
STARLINK-1169           
1 45061U 20006T   24239.46612911  .00000495  00000+0  52121-4 0  9996
2 45061  53.0538 281.5612 0001650  99.8513 260.2663 15.06412224252027
STARLINK-1171           
1 45062U 20006U   24239.84947757  .00002382  00000+0  17869-3 0  9994
2 45062  53.0530 279.8383 0001467  87.5869 272.5288 15.06408519252424
STARLINK-1133           
1 45064U 20006W   24240.19411031  .00000398  00000+0  45643-4 0  9994
2 45064  53.0535 258.2930 0001505  89.5241 270.5920 15.06397834252764
STARLINK-1139           
1 45065U 20006X   24240.13174157  .00112911  00000+0  16361-2 0  9992
2 45065  53.0476 199.6445 0011591  42.3681 317.8222 15.54959404253580
STARLINK-1145           
1 45066U 20006Y   24239.77390701  .00001152  00000+0  96205-4 0  9997
2 45066  53.0536 260.1754 0001280  84.2070 275.9065 15.06403766252687
STARLINK-1150           
1 45067U 20006Z   24239.78865360  .00000493  00000+0  51968-4 0  9991
2 45067  53.0538 260.1114 0001378  85.8560 274.2586 15.06402528252695
STARLINK-1161           
1 45068U 20006AA  24239.76328985  .00033846  00000+0  20387-2 0  9994
2 45068  53.0520 259.4093 0005786  37.3145 322.8247 15.10502832252353
STARLINK-1167           
1 45071U 20006AD  24240.21991466  .00000527  00000+0  54306-4 0  9990
2 45071  53.0538 258.1775 0001645  88.2942 271.8235 15.06391272252752
STARLINK-1168           
1 45072U 20006AE  24239.75916808  .00001296  00000+0  10588-3 0  9992
2 45072  53.0522 260.2452 0001493  88.3318 271.7842 15.06413153252342
STARLINK-1170           
1 45073U 20006AF  24239.78496955  .00001556  00000+0  12329-3 0  9996
2 45073  53.0533 260.1313 0001305  85.6640 274.4498 15.06403903252349
STARLINK-1172           
1 45074U 20006AG  24239.77021870  .00000066  00000+0  23324-4 0  9999
2 45074  53.0533 260.1960 0001283  95.6946 264.4189 15.06404121252342
STARLINK-1174           
1 45075U 20006AH  24240.20147991  .00000197  00000+0  32139-4 0  9992
2 45075  53.0529 258.2533 0001727 107.3018 252.8160 15.06410284252769
STARLINK-1177           
1 45078U 20006AL  24239.76287128 -.00000544  00000+0 -17618-4 0  9994
2 45078  53.0545 260.2263 0001359  84.0053 276.1091 15.06390061252339
STARLINK-1153           
1 45080U 20006AN  24239.94715351 -.00001033  00000+0 -50467-4 0  9994
2 45080  53.0539 259.4009 0001442  93.6936 266.4218 15.06395466252373
STARLINK-1151           
1 45081U 20006AP  24240.19781738  .00004330  00000+0  30936-3 0  9995
2 45081  53.0532 258.3518 0001360  83.2273 276.8871 15.06408317252761
STARLINK-1160           
1 45082U 20006AQ  24240.25001157  .00341540  00000+0  11429-2 0  9995
2 45082  53.0438 182.5607 0004592 112.6311 154.2655 15.88741955253818
STARLINK-1190           
1 45083U 20006AR  24239.81261173 -.00000159  00000+0  81933-5 0  9991
2 45083  53.0530 280.0066 0001462  88.8887 271.2269 15.06401686252072
STARLINK-1173           
1 45084U 20006AS  24239.72783979  .00001267  00000+0  10393-3 0  9995
2 45084  53.0540 240.3833 0001377  92.1147 268.0000 15.06395904252620
STARLINK-1179           
1 45085U 20006AT  24240.25493729  .00000173  00000+0  30527-4 0  9994
2 45085  53.0541 238.0191 0001731  91.4057 268.7131 15.06395557253042
STARLINK-1185           
1 45087U 20006AV  24240.17384119  .00000192  00000+0  31806-4 0  9991
2 45087  53.0533 238.3792 0001417  93.5394 266.5757 15.06388018253148
STARLINK-1183           
1 45088U 20006AW  24240.19595586  .00000403  00000+0  45973-4 0  9991
2 45088  53.0542 238.2839 0001341  89.8773 270.2370 15.06388134252696
STARLINK-1136           
1 45089U 20006AX  24240.13699493 -.00000363  00000+0 -54738-5 0  9995
2 45089  53.0544 238.6359 0001498  91.3614 268.7546 15.06393544252682
STARLINK-1176           
1 45090U 20006AY  24240.18026764  .00001645  00000+0  12933-3 0  9998
2 45090  53.0540 238.3443 0001393  85.8740 274.2408 15.06387578252693
STARLINK-1137           
1 45092U 20006BA  24240.15542313  .00001007  00000+0  86490-4 0  9992
2 45092  53.0538 238.4641 0001717  97.4368 262.6816 15.06396975253032
STARLINK-1142           
1 45093U 20006BB  24239.28259305  .00019551  00000+0  12931-2 0  9991
2 45093  53.0524 242.3149 0001759  80.1561 279.9627 15.07381529252552
STARLINK-1146           
1 45094U 20006BC  24240.16552643 -.00000244  00000+0  25361-5 0  9996
2 45094  53.0535 238.4122 0001580  95.3061 264.8108 15.06385015253042
STARLINK-1147           
1 45095U 20006BD  24240.15916900  .00000404  00000+0  46055-4 0  9995
2 45095  53.0533 239.0273 0001449  88.3677 271.7478 15.06392760253035
STARLINK-1152           
1 45096U 20006BE  24240.16278218 -.00000211  00000+0  47652-5 0  9992
2 45096  53.0535 238.4344 0001503  91.5098 268.6063 15.06389427253035
STARLINK-1184           
1 45098U 20006BG  24240.14435544 -.00000200  00000+0  55076-5 0  9996
2 45098  53.0527 238.5130 0001800  96.1273 263.9921 15.06392903251232
STARLINK-1186           
1 45099U 20006BH  24240.17752481 -.00000801  00000+0 -34892-4 0  9992
2 45099  53.0538 238.3664 0001443  92.4975 267.6179 15.06388245253047
STARLINK-1193           
1 45100U 20006BJ  24240.20701257 -.00000376  00000+0 -63615-5 0  9997
2 45100  53.0534 238.2337 0001221  90.3017 269.8111 15.06394518253040
STARLINK-1138           
1 45178U 20012A   24239.77944790  .00002035  00000+0  15549-3 0  9993
2 45178  53.0544  40.1499 0001274  85.2639 274.8496 15.06396801250389
